{
  "type": "FeatureCollection",
  "licence": "Data © OpenStreetMap contributors, ODbL 1.0. http://osm.org/copyright",
  "features": [
    {
      "type": "Feature",
      "properties": {
        "place_id": 194524374,
        "osm_type": "relation",
        "osm_id": 102269,
        "place_rank": 8,
        "category": "boundary",
        "type": "administrative",
        "importance": 0.871311709597481,
        "addresstype": "state",
        "name": "Москва",
        "display_name": "Москва, Центральный федеральный округ, Россия",
        "address": {
          "state": "Москва",
          "ISO3166-2-lvl4": "RU-MOW",
          "region": "Центральный федеральный округ",
          "country": "Россия",
          "country_code": "ru"
        }
      },
      "bbox": [36.8031012, 55.1421745, 37.9674277, 56.0212238],
      "geometry": {
        "type": "MultiPolygon",
        "coordinates": [
          [
            [
              [36.8031012, 55.4408329],
              [36.8113604, 55.436299],
              [36.8191279, 55.426764],
              [36.8219237, 55.4292788],
              [36.8282363, 55.4286426],
              [36.8260484, 55.4281616],
              [36.8226024, 55.4248663],
              [36.8211988, 55.4252289],
              [36.8245509, 55.4233368],
              [36.8242945, 55.4226464],
              [36.8258145, 55.4214344],
              [36.8420879, 55.4186994],
              [36.8342961, 55.4139868],
              [36.8618745, 55.4010347],
              [36.8482657, 55.3920817],
              [36.8628646, 55.3848405],
              [36.8557881, 55.3805025],
              [36.9040847, 55.3570066],
              [36.9029439, 55.3556966],
              [36.9155903, 55.3540829],
              [36.9151419, 55.3526258],
              [36.9161441, 55.3525398],
              [36.9156603, 55.3517006],
              [36.9162405, 55.3507965],
              [36.936134, 55.3412569],
              [36.9368876, 55.3365924],
              [36.9391706, 55.3366222],
              [36.9402706, 55.3342711],
              [36.9422175, 55.3325707],
              [36.9466292, 55.3306699],
              [36.94473, 55.3293694],
              [36.9604066, 55.3219045],
              [36.9636827, 55.3240984],
              [36.9864415, 55.3155888],
              [36.9883868, 55.3083172],
              [36.9846594, 55.301825],
              [36.9873663, 55.299957],
              [36.9838119, 55.296971],
              [36.9927361, 55.2927428],
              [36.9933511, 55.2910392],
              [36.9977408, 55.2915579],
              [36.9983397, 55.290279],
              [37.0025673, 55.2890093],
              [37.0126627, 55.2898928],
              [37.0216065, 55.2887924],
              [37.021409, 55.2844293],
              [37.0259868, 55.2843746],
              [37.0260365, 55.2830207],
              [37.0212593, 55.2819784],
              [36.9900377, 55.2761388],
              [36.9867967, 55.2763316],
              [36.9834123, 55.2681383],
              [36.9804835, 55.2690665],
              [36.9750672, 55.2662075],
              [36.9693269, 55.2672127],
              [36.9662549, 55.2663311],
              [36.9619392, 55.2673536],
              [36.9569738, 55.2654009],
              [36.9525171, 55.2648355],
              [36.9571023, 55.2607625],
              [36.9536543, 55.2590903],
              [36.9505631, 55.2589776],
              [36.9490731, 55.2572346],
              [36.9477649, 55.2497062],
              [36.9526161, 55.2492727],
              [36.9514323, 55.2456509],
              [36.9427793, 55.2474012],
              [36.9437066, 55.2456669],
              [36.9428914, 55.2452632],
              [36.9433328, 55.2447825],
              [36.9410426, 55.2440012],
              [36.9417323, 55.2434277],
              [36.9410473, 55.242942],
              [36.9392591, 55.2428495],
              [36.9372604, 55.2416096],
              [36.9467799, 55.2413959],
              [36.9494394, 55.2402372],
              [36.9501322, 55.2382617],
              [36.9488563, 55.2343118],
              [36.9458295, 55.2307229],
              [36.9496407, 55.2246956],
              [36.9458962, 55.2228045],
              [36.9484587, 55.2203112],
              [36.9470709, 55.2185131],
              [36.9514697, 55.2182124],
              [36.9572593, 55.2166115],
              [36.9622748, 55.2141413],
              [36.9621872, 55.2125713],
              [36.9650317, 55.21207],
              [36.9616364, 55.2089772],
              [36.9663044, 55.2053499],
              [36.9658661, 55.2042117],
              [36.9670967, 55.1997366],
              [36.9690566, 55.19847],
              [36.9757102, 55.1895425],
              [36.9797655, 55.1862534],
              [36.9810681, 55.186116],
              [36.9815935, 55.1822849],
              [36.9826115, 55.1804662],
              [36.9841112, 55.1812787],
              [36.990263, 55.1816912],
              [36.991471, 55.1828603],
              [36.9951645, 55.1821895],
              [36.9971734, 55.1801419],
              [37.0012075, 55.1815111],
              [37.0065509, 55.1806037],
              [37.0082314, 55.1828315],
              [37.0103878, 55.1833315],
              [37.0164739, 55.184019],
              [37.0197139, 55.1829503],
              [37.0142189, 55.1773],
              [37.0159047, 55.1765187],
              [37.0180939, 55.1772688],
              [37.0182362, 55.1742308],
              [37.0194652, 55.1714944],
              [37.0198904, 55.1611199],
              [37.0185474, 55.1601772],
              [37.0152269, 55.1599986],
              [37.0181058, 55.1575885],
              [37.0232266, 55.1555999],
              [37.0274341, 55.1526132],
              [37.0279371, 55.1501468],
              [37.0378396, 55.1460157],
              [37.0392054, 55.1425215],
              [37.0456319, 55.1421745],
              [37.0448159, 55.143376],
              [37.064748, 55.1442772],
              [37.0643935, 55.147119],
              [37.1112104, 55.149187],
              [37.1105834, 55.1541636],
              [37.1420798, 55.1556758],
              [37.1407765, 55.1643778],
              [37.1563181, 55.1647621],
              [37.1571762, 55.1617451],
              [37.1620628, 55.1647183],
              [37.1660961, 55.1643813],
              [37.1666616, 55.1653771],
              [37.169879, 55.1643393],
              [37.1713388, 55.1654708],
              [37.1711277, 55.1703684],
              [37.1698061, 55.1714461],
              [37.1700468, 55.1737862],
              [37.1673875, 55.1806257],
              [37.1683554, 55.1828375],
              [37.1672809, 55.1854214],
              [37.1733621, 55.1916136],
              [37.1744385, 55.1950437],
              [37.1688774, 55.1946373],
              [37.1666677, 55.2114437],
              [37.167991, 55.2116104],
              [37.1695854, 55.2157646],
              [37.1662744, 55.2161455],
              [37.1633611, 55.2315787],
              [37.1715136, 55.2313471],
              [37.1758457, 55.2325556],
              [37.178098, 55.2342875],
              [37.1848703, 55.2368846],
              [37.1890012, 55.2364724],
              [37.1939404, 55.2348099],
              [37.1998437, 55.2377152],
              [37.2049599, 55.2417049],
              [37.2018674, 55.2430869],
              [37.2011838, 55.2443623],
              [37.2059444, 55.2494691],
              [37.2078402, 55.2491025],
              [37.2097666, 55.2507992],
              [37.2142064, 55.2526908],
              [37.2162311, 55.2522317],
              [37.2190046, 55.2531095],
              [37.2342665, 55.2479159],
              [37.2348499, 55.2476266],
              [37.233157, 55.245576],
              [37.2355324, 55.2443924],
              [37.2347826, 55.2427651],
              [37.2455159, 55.2392653],
              [37.2474556, 55.2419298],
              [37.2512725, 55.2399967],
              [37.2701554, 55.2404862],
              [37.2696046, 55.2407218],
              [37.2744925, 55.2446116],
              [37.2768652, 55.2515818],
              [37.2678845, 55.2564651],
              [37.2715607, 55.2588241],
              [37.291024, 55.2485853],
              [37.2944596, 55.2423799],
              [37.3029831, 55.2429011],
              [37.3069924, 55.2401223],
              [37.3052108, 55.2381806],
              [37.3049981, 55.2358075],
              [37.3050466, 55.2342715],
              [37.306662, 55.2316975],
              [37.3043326, 55.2318411],
              [37.2999211, 55.2306084],
              [37.3008467, 55.2245258],
              [37.3169676, 55.2207156],
              [37.3178195, 55.2227216],
              [37.3166632, 55.2282851],
              [37.3333916, 55.2286723],
              [37.3350536, 55.237498],
              [37.3344099, 55.2380419],
              [37.3532432, 55.2388534],
              [37.3851209, 55.2468083],
              [37.4053152, 55.2505764],
              [37.4066409, 55.2608402],
              [37.411629, 55.27863],
              [37.4109072, 55.2787407],
              [37.4154462, 55.286497],
              [37.4152262, 55.2900262],
              [37.4179872, 55.2912782],
              [37.409719, 55.2901725],
              [37.4085699, 55.2919091],
              [37.41323, 55.2935885],
              [37.4108982, 55.2962582],
              [37.4028638, 55.2965262],
              [37.4030065, 55.2977662],
              [37.4040946, 55.2984537],
              [37.404074, 55.3004863],
              [37.3994496, 55.3016912],
              [37.3992597, 55.3010211],
              [37.3975224, 55.301331],
              [37.392513, 55.2995215],
              [37.389964, 55.3025414],
              [37.3926628, 55.3066182],
              [37.3953854, 55.3073743],
              [37.3950736, 55.3080662],
              [37.3936511, 55.3078776],
              [37.393178, 55.3096076],
              [37.3914242, 55.3095854],
              [37.3904437, 55.3111972],
              [37.3896529, 55.3111677],
              [37.3898721, 55.3122243],
              [37.3879199, 55.3121699],
              [37.3862674, 55.3145634],
              [37.3827304, 55.3167873],
              [37.395524, 55.3149424],
              [37.3966906, 55.3160378],
              [37.4097827, 55.309415],
              [37.4146471, 55.311858],
              [37.4221271, 55.3115196],
              [37.4223367, 55.3123556],
              [37.4278176, 55.3147269],
              [37.4249141, 55.3172176],
              [37.4241039, 55.3215254],
              [37.4247546, 55.3224923],
              [37.4229134, 55.3239272],
              [37.4208414, 55.3289206],
              [37.4079148, 55.3338205],
              [37.4058534, 55.3350078],
              [37.4051145, 55.3365341],
              [37.4100281, 55.3392992],
              [37.4137878, 55.3403683],
              [37.4142545, 55.3412899],
              [37.422863, 55.3432068],
              [37.4223185, 55.3463694],
              [37.4196608, 55.3506228],
              [37.419933, 55.3513156],
              [37.4410265, 55.3519495],
              [37.4403134, 55.3526866],
              [37.4430878, 55.3529225],
              [37.4275721, 55.3646524],
              [37.4301001, 55.3647014],
              [37.4314132, 55.3671481],
              [37.4293322, 55.3688048],
              [37.4342001, 55.3700291],
              [37.4353002, 55.3727901],
              [37.4382338, 55.3745455],
              [37.4408831, 55.3740663],
              [37.4451276, 55.3750456],
              [37.4471078, 55.3811656],
              [37.4489963, 55.3815979],
              [37.4543213, 55.3799374],
              [37.4559439, 55.3772654],
              [37.4559941, 55.3753045],
              [37.4571173, 55.3746194],
              [37.4568148, 55.3739786],
              [37.4621777, 55.3676752],
              [37.4654688, 55.369186],
              [37.4675039, 55.3712907],
              [37.4644879, 55.3766404],
              [37.4692698, 55.3798179],
              [37.4670528, 55.3846863],
              [37.4639283, 55.3882286],
              [37.4705403, 55.3900254],
              [37.4639932, 55.3980216],
              [37.4639024, 55.3986548],
              [37.4685178, 55.3990376],
              [37.4675195, 55.3997002],
              [37.4613095, 55.3994057],
              [37.4609465, 55.40157],
              [37.4633838, 55.4026522],
              [37.4620614, 55.4048679],
              [37.4689586, 55.4067817],
              [37.4655875, 55.4090158],
              [37.467256, 55.4109414],
              [37.4672927, 55.4125651],
              [37.4599771, 55.4133144],
              [37.4561268, 55.4122945],
              [37.4523819, 55.4133069],
              [37.4503189, 55.4156612],
              [37.443536, 55.413182],
              [37.4425603, 55.4141316],
              [37.4369281, 55.4138807],
              [37.4361026, 55.4152643],
              [37.4392823, 55.4185887],
              [37.4388367, 55.4203019],
              [37.4354048, 55.420764],
              [37.4348987, 55.4191064],
              [37.4332369, 55.4191733],
              [37.4335665, 55.4217877],
              [37.432456, 55.4232928],
              [37.4285851, 55.424064],
              [37.4269782, 55.4253606],
              [37.4289233, 55.4263896],
              [37.4335436, 55.4267923],
              [37.4302935, 55.4290124],
              [37.4249751, 55.4266027],
              [37.425765, 55.4273621],
              [37.426521, 55.4323914],
              [37.3866836, 55.4344334],
              [37.3865229, 55.4384364],
              [37.3914808, 55.4377533],
              [37.3958776, 55.440258],
              [37.4000303, 55.4443934],
              [37.3989863, 55.4454482],
              [37.3948177, 55.4424419],
              [37.3907715, 55.441942],
              [37.3893875, 55.4421428],
              [37.390163, 55.444124],
              [37.387714, 55.4463702],
              [37.3786057, 55.4463362],
              [37.3766781, 55.445442],
              [37.3735957, 55.4453994],
              [37.3713843, 55.4478643],
              [37.3727168, 55.4499159],
              [37.3745434, 55.4498542],
              [37.3757657, 55.4513303],
              [37.3786694, 55.4521101],
              [37.3844749, 55.4512963],
              [37.3879022, 55.4535718],
              [37.3868338, 55.4540843],
              [37.3864742, 55.4559248],
              [37.3836378, 55.4570306],
              [37.3843227, 55.4578768],
              [37.3876604, 55.456687],
              [37.3887682, 55.4571004],
              [37.3942065, 55.4631642],
              [37.3924964, 55.4641254],
              [37.3910316, 55.4666742],
              [37.3945731, 55.4690068],
              [37.4027853, 55.4684995],
              [37.4003774, 55.4669892],
              [37.4050761, 55.4650821],
              [37.4076272, 55.4650853],
              [37.4112571, 55.4629321],
              [37.4122044, 55.4656282],
              [37.4157164, 55.4661543],
              [37.4196233, 55.4687008],
              [37.4210819, 55.4683775],
              [37.4245489, 55.4698473],
              [37.429091, 55.4694207],
              [37.429736, 55.4717742],
              [37.4262247, 55.475893],
              [37.4345242, 55.4768387],
              [37.4446378, 55.4821179],
              [37.4464698, 55.4820796],
              [37.4481589, 55.4802174],
              [37.4496746, 55.4801239],
              [37.4476133, 55.4751068],
              [37.4520502, 55.4725548],
              [37.4570119, 55.4727569],
              [37.4600779, 55.4702088],
              [37.4616214, 55.469874],
              [37.4629517, 55.4708889],
              [37.4646724, 55.4708569],
              [37.4642182, 55.4684469],
              [37.4585142, 55.4679137],
              [37.4579022, 55.4656842],
              [37.4653222, 55.4648329],
              [37.4700953, 55.4622729],
              [37.4740837, 55.461277],
              [37.4773275, 55.4616609],
              [37.4780473, 55.4606287],
              [37.4842097, 55.4583028],
              [37.4899346, 55.4608869],
              [37.4967152, 55.4591398],
              [37.4962517, 55.4580984],
              [37.492149, 55.4561663],
              [37.4985177, 55.4508902],
              [37.4985348, 55.4500383],
              [37.4864241, 55.4478283],
              [37.4857718, 55.4468986],
              [37.489942, 55.4444722],
              [37.4955284, 55.4430545],
              [37.4953792, 55.4422722],
              [37.4994875, 55.4413729],
              [37.5030414, 55.437886],
              [37.5134813, 55.4359233],
              [37.5293944, 55.4358453],
              [37.5352652, 55.4362787],
              [37.5383916, 55.4374857],
              [37.5358069, 55.4392485],
              [37.5357037, 55.4398081],
              [37.5366695, 55.4399235],
              [37.5347712, 55.4449509],
              [37.5315207, 55.4469073],
              [37.5316055, 55.4517498],
              [37.5327639, 55.4536847],
              [37.5366617, 55.4533485],
              [37.5368187, 55.4547761],
              [37.5443163, 55.4578625],
              [37.5480083, 55.4568969],
              [37.5478605, 55.4598497],
              [37.5459199, 55.4597185],
              [37.5475792, 55.4616789],
              [37.5459091, 55.4615658],
              [37.5470935, 55.4645853],
              [37.5456016, 55.4648502],
              [37.5447501, 55.4726458],
              [37.5608448, 55.4733871],
              [37.5654849, 55.487418],
              [37.578667, 55.4866923],
              [37.5777803, 55.4837651],
              [37.5798005, 55.4836784],
              [37.5834559, 55.4862914],
              [37.5870275, 55.4867217],
              [37.5837123, 55.4876748],
              [37.5859645, 55.489054],
              [37.5832057, 55.4906384],
              [37.5845028, 55.4911955],
              [37.5818913, 55.4920181],
              [37.5833567, 55.4935768],
              [37.5950843, 55.4887276],
              [37.601931, 55.4892832],
              [37.6035763, 55.4904832],
              [37.6035226, 55.4914006],
              [37.6046793, 55.4916699],
              [37.6058837, 55.4907826],
              [37.6064915, 55.4882986],
              [37.6113541, 55.4896351],
              [37.6110248, 55.4914069],
              [37.6073946, 55.4918154],
              [37.6079282, 55.4927869],
              [37.610417, 55.4932414],
              [37.6091037, 55.500877],
              [37.6056731, 55.501871],
              [37.6089293, 55.5024075],
              [37.6080963, 55.509844],
              [37.6021162, 55.5104561],
              [37.6047679, 55.5125038],
              [37.603814, 55.5130378],
              [37.6008921, 55.5109247],
              [37.5980226, 55.5147069],
              [37.5918282, 55.5124933],
              [37.5855231, 55.5179973],
              [37.5784455, 55.5216802],
              [37.5839151, 55.5371993],
              [37.5833174, 55.5378616],
              [37.589454, 55.557683],
              [37.5942413, 55.5608762],
              [37.6035767, 55.5645916],
              [37.6016747, 55.5672282],
              [37.6005631, 55.5707353],
              [37.5981943, 55.5726662],
              [37.597788, 55.57378],
              [37.5984891, 55.5744262],
              [37.6003203, 55.5753745],
              [37.603685, 55.5752108],
              [37.6041629, 55.5744194],
              [37.6055416, 55.5750574],
              [37.6496649, 55.5724788],
              [37.6507517, 55.5717346],
              [37.653897, 55.572285],
              [37.664279, 55.5716295],
              [37.6760494, 55.5720884],
              [37.6851823, 55.5741203],
              [37.6891553, 55.5734796],
              [37.6909246, 55.5723191],
              [37.6917206, 55.5729498],
              [37.6913799, 55.5747848],
              [37.6925643, 55.5771246],
              [37.7263489, 55.5900666],
              [37.7321735, 55.5887973],
              [37.7328042, 55.5891672],
              [37.7320986, 55.5909144],
              [37.733529, 55.5929779],
              [37.7538314, 55.6015974],
              [37.7800723, 55.6158902],
              [37.7869299, 55.6166549],
              [37.7837364, 55.618106],
              [37.7958476, 55.6242264],
              [37.818332, 55.6392096],
              [37.8235106, 55.6396749],
              [37.824164, 55.6404868],
              [37.8226572, 55.6416176],
              [37.8351163, 55.6502424],
              [37.8390998, 55.6554662],
              [37.8411397, 55.6551916],
              [37.8416266, 55.6578452],
              [37.840133, 55.6582724],
              [37.8395998, 55.6640071],
              [37.8325244, 55.6836508],
              [37.8346578, 55.6846435],
              [37.8368553, 55.684258],
              [37.8568896, 55.6757013],
              [37.8589569, 55.6772117],
              [37.864792, 55.6873501],
              [37.8647451, 55.6882644],
              [37.8600053, 55.6910309],
              [37.8640933, 55.6936883],
              [37.8561665, 55.6987648],
              [37.858407, 55.7001245],
              [37.8573155, 55.7006976],
              [37.858176, 55.7012543],
              [37.8600534, 55.7011368],
              [37.8715322, 55.6952975],
              [37.8811401, 55.7008616],
              [37.8805731, 55.7011496],
              [37.8869711, 55.7052153],
              [37.9070118, 55.7069911],
              [37.9061276, 55.7062585],
              [37.9073625, 55.7046228],
              [37.9114697, 55.7047888],
              [37.9122367, 55.7029951],
              [37.913525, 55.7021999],
              [37.9134366, 55.6978652],
              [37.9151667, 55.6970473],
              [37.9189383, 55.6994252],
              [37.924743, 55.6970422],
              [37.9266095, 55.6982211],
              [37.9398067, 55.6980146],
              [37.939877, 55.696504],
              [37.9358711, 55.696811],
              [37.9282528, 55.6949993],
              [37.9231927, 55.6892714],
              [37.9186031, 55.68826],
              [37.9172582, 55.6862674],
              [37.9132908, 55.6833168],
              [37.9142673, 55.6830077],
              [37.9137928, 55.6816045],
              [37.9189453, 55.6805191],
              [37.9204717, 55.676143],
              [37.9486257, 55.6755023],
              [37.9633779, 55.673656],
              [37.9634687, 55.6744245],
              [37.9613556, 55.6756369],
              [37.9618591, 55.6777142],
              [37.9644024, 55.6798146],
              [37.9633796, 55.680907],
              [37.9630378, 55.6828163],
              [37.9637986, 55.6845183],
              [37.9628732, 55.6856636],
              [37.9647713, 55.6861743],
              [37.9611673, 55.6880814],
              [37.9611844, 55.6890271],
              [37.9578801, 55.6894508],
              [37.9602039, 55.692774],
              [37.9575785, 55.6938492],
              [37.9563543, 55.6927429],
              [37.9539295, 55.692726],
              [37.9556123, 55.6945131],
              [37.9508767, 55.6961866],
              [37.9486602, 55.6950725],
              [37.9447161, 55.6971238],
              [37.9455387, 55.6980898],
              [37.945237, 55.6991227],
              [37.9466318, 55.7000094],
              [37.9533496, 55.7006091],
              [37.9529031, 55.7013629],
              [37.9542086, 55.7027752],
              [37.9557559, 55.7027316],
              [37.9565075, 55.7022066],
              [37.9560377, 55.7011036],
              [37.9570098, 55.7008737],
              [37.9597448, 55.7045084],
              [37.9579107, 55.7059401],
              [37.947302, 55.7085965],
              [37.9496668, 55.7113411],
              [37.964077, 55.7093106],
              [37.9667063, 55.7104986],
              [37.9598592, 55.7140911],
              [37.9674277, 55.716249],
              [37.9584742, 55.7176168],
              [37.9555126, 55.720222],
              [37.9474751, 55.7200604],
              [37.9426104, 55.7220519],
              [37.9376089, 55.726887],
              [37.9308738, 55.729755],
              [37.9285228, 55.7293536],
              [37.9235854, 55.7312255],
              [37.9180394, 55.7306219],
              [37.9169278, 55.7283571],
              [37.9150477, 55.7269838],
              [37.9077903, 55.724506],
              [37.9028954, 55.7253249],
              [37.8993176, 55.7236191],
              [37.8923084, 55.7231871],
              [37.8906332, 55.722309],
              [37.8898505, 55.7237012],
              [37.8854775, 55.7241916],
              [37.8841562, 55.7233962],
              [37.8871291, 55.721653],
              [37.8869204, 55.7202606],
              [37.8824863, 55.7190029],
              [37.8765345, 55.7204709],
              [37.8769962, 55.7216165],
              [37.8761077, 55.7233852],
              [37.8724504, 55.723377],
              [37.8702706, 55.7265861],
              [37.8721668, 55.7277051],
              [37.8734123, 55.7296476],
              [37.8688922, 55.7329729],
              [37.865471, 55.7331585],
              [37.864238, 55.7347168],
              [37.8684891, 55.7372895],
              [37.8731611, 55.7381569],
              [37.8780087, 55.7378695],
              [37.8807532, 55.7425041],
              [37.8858291, 55.7426129],
              [37.8900854, 55.7416036],
              [37.8909533, 55.7421946],
              [37.8882457, 55.7484642],
              [37.8825409, 55.7493396],
              [37.8605434, 55.7452434],
              [37.8468046, 55.7445871],
              [37.8426549, 55.7467345],
              [37.8434979, 55.7669072],
              [37.8459341, 55.7686145],
              [37.8436249, 55.7725573],
              [37.8434007, 55.7747346],
              [37.8457574, 55.7770065],
              [37.8506765, 55.7785667],
              [37.8455574, 55.7782083],
              [37.8431377, 55.7792395],
              [37.839762, 55.8116247],
              [37.8437616, 55.8147738],
              [37.8391745, 55.8162615],
              [37.8380944, 55.8209718],
              [37.8360495, 55.8242232],
              [37.8300815, 55.829153],
              [37.8297437, 55.8305581],
              [37.8273855, 55.8305991],
              [37.730375, 55.8806067],
              [37.7292909, 55.8820464],
              [37.7320995, 55.8853158],
              [37.7315551, 55.8856186],
              [37.7275238, 55.8839511],
              [37.7243624, 55.8838019],
              [37.7071883, 55.8923311],
              [37.6987201, 55.894336],
              [37.6769548, 55.8954621],
              [37.6726695, 55.8978367],
              [37.6691834, 55.8956784],
              [37.6632928, 55.8959169],
              [37.6473691, 55.8972854],
              [37.6292697, 55.8999289],
              [37.5931529, 55.9089479],
              [37.5903936, 55.9115316],
              [37.5912017, 55.9135942],
              [37.587256, 55.9104216],
              [37.5741491, 55.9112732],
              [37.5559156, 55.9092832],
              [37.5613846, 55.9280589],
              [37.5609557, 55.9322714],
              [37.5659213, 55.933349],
              [37.5665274, 55.9364735],
              [37.5702148, 55.9364521],
              [37.5700906, 55.9409267],
              [37.5645841, 55.9414007],
              [37.5624642, 55.9510736],
              [37.5794223, 55.9494679],
              [37.5800379, 55.9520246],
              [37.5791196, 55.9536733],
              [37.580707, 55.9539887],
              [37.5784053, 55.9555754],
              [37.5747378, 55.9561865],
              [37.5744299, 55.9577717],
              [37.5551537, 55.951529],
              [37.555104, 55.9535347],
              [37.5516576, 55.953631],
              [37.5518937, 55.951221],
              [37.5485507, 55.9511581],
              [37.5469335, 55.9542957],
              [37.5423512, 55.9541421],
              [37.5374401, 55.9528431],
              [37.5435935, 55.9428103],
              [37.530555, 55.9435748],
              [37.5192349, 55.9419381],
              [37.5363206, 55.9075674],
              [37.5244518, 55.9049172],
              [37.4962542, 55.8924795],
              [37.4943453, 55.8926768],
              [37.4928601, 55.8909823],
              [37.4859353, 55.8883988],
              [37.4835978, 55.8906504],
              [37.4823164, 55.8883802],
              [37.4759345, 55.8858645],
              [37.4628321, 55.8832171],
              [37.4477311, 55.8827967],
              [37.4439641, 55.8831423],
              [37.4424188, 55.8841651],
              [37.4415353, 55.883839],
              [37.4418824, 55.8824265],
              [37.4404745, 55.8808216],
              [37.4309505, 55.8778512],
              [37.4266635, 55.8774643],
              [37.4171635, 55.8783095],
              [37.4094205, 55.8806876],
              [37.4093978, 55.8849173],
              [37.4055779, 55.8862348],
              [37.4042239, 55.8875213],
              [37.4041816, 55.8920695],
              [37.3992913, 55.9007554],
              [37.3984488, 55.901531],
              [37.3913797, 55.9024645],
              [37.3899171, 55.9043205],
              [37.3900178, 55.9128443],
              [37.398713, 55.9166177],
              [37.3949359, 55.9193292],
              [37.393851, 55.9211355],
              [37.3943312, 55.9226576],
              [37.3968464, 55.9261701],
              [37.4084134, 55.9241346],
              [37.4106248, 55.925248],
              [37.4102691, 55.9272063],
              [37.4077466, 55.9290304],
              [37.4101622, 55.9304426],
              [37.4101679, 55.9319133],
              [37.4076688, 55.9346914],
              [37.4066636, 55.939028],
              [37.4077198, 55.9392932],
              [37.4085786, 55.9427713],
              [37.4103667, 55.945258],
              [37.4208886, 55.9471995],
              [37.4207076, 55.9497164],
              [37.4224581, 55.9513146],
              [37.4198547, 55.9515805],
              [37.4204582, 55.952516],
              [37.4199157, 55.9530314],
              [37.4167889, 55.9534168],
              [37.4161184, 55.9543974],
              [37.4137634, 55.9545265],
              [37.4134013, 55.9537275],
              [37.4113789, 55.953187],
              [37.4097233, 55.9542052],
              [37.4074765, 55.9533538],
              [37.4086411, 55.9527676],
              [37.4073959, 55.9513294],
              [37.3932094, 55.9486359],
              [37.3916139, 55.9500301],
              [37.392985, 55.9512875],
              [37.3927919, 55.9522727],
              [37.3902599, 55.9519903],
              [37.3892192, 55.9530836],
              [37.3847345, 55.9532037],
              [37.3828826, 55.9526653],
              [37.3835505, 55.9513137],
              [37.3815823, 55.9507932],
              [37.3752549, 55.9535925],
              [37.3762313, 55.9554425],
              [37.3719719, 55.9561382],
              [37.358211, 55.9556423],
              [37.3592083, 55.9547835],
              [37.3577073, 55.954484],
              [37.3581766, 55.9534769],
              [37.3560009, 55.9535438],
              [37.3534926, 55.9511259],
              [37.3503876, 55.952475],
              [37.348819, 55.9518948],
              [37.3464338, 55.953622],
              [37.346872, 55.9550128],
              [37.3501948, 55.9569202],
              [37.3495832, 55.9572896],
              [37.3445705, 55.9564052],
              [37.3415703, 55.9568281],
              [37.3410173, 55.9565621],
              [37.3417992, 55.9559792],
              [37.3350259, 55.9535891],
              [37.3364424, 55.9507148],
              [37.3405276, 55.9462664],
              [37.3416982, 55.9467499],
              [37.3479065, 55.9432289],
              [37.3474532, 55.9429426],
              [37.3510086, 55.9407866],
              [37.3503948, 55.940476],
              [37.3540987, 55.9389069],
              [37.3495479, 55.9366301],
              [37.3432683, 55.9389578],
              [37.3358152, 55.9357439],
              [37.33678, 55.9349949],
              [37.3363011, 55.9347823],
              [37.334963, 55.9353847],
              [37.3313205, 55.9338701],
              [37.3366865, 55.9326648],
              [37.3398343, 55.9307309],
              [37.3435269, 55.9266406],
              [37.3437067, 55.9241832],
              [37.3492233, 55.9260385],
              [37.3564628, 55.9299543],
              [37.377823, 55.9211143],
              [37.3717351, 55.9196431],
              [37.3660258, 55.9153807],
              [37.3658403, 55.9141697],
              [37.3698614, 55.9081959],
              [37.3662836, 55.9067026],
              [37.3706763, 55.9036305],
              [37.3617712, 55.9014555],
              [37.3624065, 55.9004113],
              [37.3647991, 55.9000741],
              [37.3676335, 55.8980386],
              [37.3674044, 55.8970732],
              [37.3655227, 55.8966179],
              [37.365638, 55.8947333],
              [37.3672753, 55.8942673],
              [37.3741352, 55.8950696],
              [37.3773568, 55.8927083],
              [37.3730104, 55.8912318],
              [37.3734752, 55.8900743],
              [37.3725592, 55.8876481],
              [37.3747747, 55.8869266],
              [37.3714922, 55.884355],
              [37.3712548, 55.8833523],
              [37.3728638, 55.8815439],
              [37.3798326, 55.8799355],
              [37.3821655, 55.8778687],
              [37.404035, 55.8759958],
              [37.411428, 55.8709576],
              [37.4016622, 55.8644698],
              [37.3976398, 55.8599735],
              [37.3945561, 55.8544023],
              [37.3920551, 55.8550098],
              [37.3899694, 55.8541642],
              [37.3871672, 55.8558609],
              [37.3855164, 55.85451],
              [37.3819717, 55.854568],
              [37.3798725, 55.8534722],
              [37.3749347, 55.8551704],
              [37.3761554, 55.8561788],
              [37.3765154, 55.8581766],
              [37.3800303, 55.8594722],
              [37.3781735, 55.8619917],
              [37.3797707, 55.8632944],
              [37.3774496, 55.8647195],
              [37.3780191, 55.8665727],
              [37.3794062, 55.8673525],
              [37.3774889, 55.8683619],
              [37.3731226, 55.8671531],
              [37.3673514, 55.868019],
              [37.3628222, 55.8676471],
              [37.3578908, 55.8642649],
              [37.3458799, 55.8629437],
              [37.3465853, 55.8622364],
              [37.3420223, 55.8602068],
              [37.3406337, 55.8580491],
              [37.3395515, 55.8551761],
              [37.3409418, 55.8526499],
              [37.3404435, 55.8515384],
              [37.3376436, 55.8498363],
              [37.3382777, 55.84896],
              [37.3371557, 55.8481635],
              [37.3341284, 55.8477278],
              [37.3320767, 55.8462996],
              [37.3329203, 55.8452958],
              [37.3490019, 55.8437918],
              [37.3474647, 55.8406036],
              [37.3406559, 55.840255],
              [37.3403714, 55.8390079],
              [37.3450013, 55.8364662],
              [37.341868, 55.8341905],
              [37.3487294, 55.8322171],
              [37.3481358, 55.8310258],
              [37.3485673, 55.8290754],
              [37.3448235, 55.826067],
              [37.3497145, 55.8263737],
              [37.3515886, 55.8243916],
              [37.3491556, 55.8222253],
              [37.3523121, 55.8212845],
              [37.3563725, 55.8226601],
              [37.3540129, 55.8263994],
              [37.3568826, 55.8265268],
              [37.3589247, 55.8228877],
              [37.3622219, 55.8221992],
              [37.365873, 55.8264811],
              [37.3689161, 55.8280237],
              [37.3799375, 55.8306661],
              [37.3939187, 55.829862],
              [37.3878905, 55.8097622],
              [37.3807281, 55.8096574],
              [37.3810808, 55.8106454],
              [37.3796746, 55.8106902],
              [37.3801967, 55.8113191],
              [37.3774474, 55.8126881],
              [37.3764306, 55.8120872],
              [37.3738627, 55.8125917],
              [37.3717466, 55.8092419],
              [37.3729467, 55.8087717],
              [37.3720858, 55.8033929],
              [37.3735617, 55.8029868],
              [37.3760573, 55.8046013],
              [37.3754202, 55.8047682],
              [37.376167, 55.805729],
              [37.3785716, 55.80568],
              [37.3791232, 55.8065438],
              [37.3778686, 55.8069855],
              [37.3778959, 55.8076942],
              [37.3793519, 55.8091719],
              [37.3860556, 55.8088709],
              [37.3859825, 55.8073094],
              [37.3867855, 55.8069524],
              [37.38353, 55.8018128],
              [37.3744812, 55.7923635],
              [37.3678444, 55.791361],
              [37.36724, 55.7903819],
              [37.3683562, 55.7899745],
              [37.3700515, 55.7887771],
              [37.3705437, 55.7883226],
              [37.370622, 55.7877908],
              [37.3690717, 55.7827259],
              [37.3688249, 55.7727246],
              [37.3652599, 55.771728],
              [37.3686444, 55.76869],
              [37.3686078, 55.7669409],
              [37.3656124, 55.7644124],
              [37.367905, 55.7641355],
              [37.368489, 55.7625565],
              [37.3683119, 55.75013],
              [37.3689477, 55.745982],
              [37.3745176, 55.7343246],
              [37.3739824, 55.7325129],
              [37.3757427, 55.7318875],
              [37.3792684, 55.7250186],
              [37.378454, 55.7233384],
              [37.3811235, 55.7213834],
              [37.3843099, 55.7151659],
              [37.381352, 55.7130943],
              [37.386661, 55.7111475],
              [37.3924774, 55.7059193],
              [37.3879413, 55.7043201],
              [37.3882393, 55.7032332],
              [37.3904837, 55.7024365],
              [37.3886458, 55.7007934],
              [37.3921625, 55.6984232],
              [37.3898298, 55.6969492],
              [37.3878858, 55.6981045],
              [37.3854471, 55.6969691],
              [37.382014, 55.6985367],
              [37.3781937, 55.6968433],
              [37.3775716, 55.7088506],
              [37.3767396, 55.7106743],
              [37.3754669, 55.7114978],
              [37.3644213, 55.7089047],
              [37.3651927, 55.7080444],
              [37.3693474, 55.7084951],
              [37.3690857, 55.7074115],
              [37.3661551, 55.7070035],
              [37.368481, 55.7036899],
              [37.3709402, 55.7036925],
              [37.36774, 55.7032986],
              [37.3691059, 55.702475],
              [37.3668194, 55.7021291],
              [37.3664989, 55.7030851],
              [37.365914, 55.7029208],
              [37.3646683, 55.701862],
              [37.365595, 55.7009431],
              [37.3633127, 55.7018251],
              [37.3633195, 55.7007325],
              [37.3573203, 55.7005489],
              [37.3574355, 55.6995235],
              [37.355769, 55.6994601],
              [37.3556302, 55.7005218],
              [37.3533615, 55.7004503],
              [37.3531138, 55.7017954],
              [37.3560893, 55.7047715],
              [37.3514621, 55.7022513],
              [37.3518141, 55.7001658],
              [37.347376, 55.6976493],
              [37.3449652, 55.6983969],
              [37.3423737, 55.6932191],
              [37.3439443, 55.6905941],
              [37.3438553, 55.6892225],
              [37.3385424, 55.6872882],
              [37.3387602, 55.6886541],
              [37.3378599, 55.6901498],
              [37.3386913, 55.6925674],
              [37.3376329, 55.6935156],
              [37.3294276, 55.6857865],
              [37.3339095, 55.6842],
              [37.3336066, 55.6832286],
              [37.3348271, 55.6824529],
              [37.3341064, 55.6820478],
              [37.3325117, 55.6829408],
              [37.3309701, 55.6815531],
              [37.3268711, 55.6829631],
              [37.3298214, 55.6854426],
              [37.3292925, 55.6856526],
              [37.3262279, 55.68276],
              [37.3460859, 55.6762989],
              [37.3489862, 55.678562],
              [37.3542991, 55.6763211],
              [37.3611, 55.6820978],
              [37.3550715, 55.6855232],
              [37.3566586, 55.6877063],
              [37.3558015, 55.6874558],
              [37.357973, 55.6917385],
              [37.3610831, 55.6900911],
              [37.3596676, 55.6890355],
              [37.3639508, 55.6877694],
              [37.3643424, 55.6882166],
              [37.3626871, 55.6887764],
              [37.3633645, 55.6899639],
              [37.3643209, 55.6906915],
              [37.3660692, 55.6901032],
              [37.3679036, 55.6917278],
              [37.372858, 55.6910665],
              [37.371502, 55.6900401],
              [37.3748651, 55.6889363],
              [37.3901959, 55.6967759],
              [37.3936964, 55.6948131],
              [37.3943217, 55.6963587],
              [37.3966154, 55.696523],
              [37.3952772, 55.6989981],
              [37.3968641, 55.6965214],
              [37.4021617, 55.6988389],
              [37.4116931, 55.6912861],
              [37.41496, 55.685267],
              [37.4151603, 55.6824256],
              [37.4142093, 55.6820281],
              [37.417481, 55.6807762],
              [37.410585, 55.6780483],
              [37.4112905, 55.6774909],
              [37.4059717, 55.6744578],
              [37.4040325, 55.6710433],
              [37.4130736, 55.6674098],
              [37.4154573, 55.6647647],
              [37.404661, 55.6619362],
              [37.3941332, 55.6609367],
              [37.3890614, 55.6619263],
              [37.3861581, 55.6645757],
              [37.3805794, 55.6645089],
              [37.379712, 55.6640279],
              [37.3780033, 55.6594828],
              [37.370952, 55.6590578],
              [37.3697653, 55.6595194],
              [37.3699988, 55.6679968],
              [37.3690415, 55.6689191],
              [37.3646174, 55.6691244],
              [37.358244, 55.6660449],
              [37.3584524, 55.6625761],
              [37.3528876, 55.6603377],
              [37.3502376, 55.6611985],
              [37.3505088, 55.6624102],
              [37.3535824, 55.6637243],
              [37.3480466, 55.6658288],
              [37.3484908, 55.6629065],
              [37.3476527, 55.6620314],
              [37.3437296, 55.6623024],
              [37.3410192, 55.657135],
              [37.3320097, 55.6596748],
              [37.3368822, 55.6615442],
              [37.3371845, 55.6630316],
              [37.3314387, 55.663877],
              [37.3275623, 55.6632246],
              [37.3254413, 55.6644473],
              [37.3195225, 55.664281],
              [37.3191526, 55.6616033],
              [37.3240457, 55.6610045],
              [37.3229081, 55.6508895],
              [37.3115376, 55.6511939],
              [37.3115233, 55.6500832],
              [37.3127913, 55.6498345],
              [37.3121033, 55.6472609],
              [37.3112033, 55.646572],
              [37.3056825, 55.6463066],
              [37.2902696, 55.6484902],
              [37.2901594, 55.6519416],
              [37.2926244, 55.6520749],
              [37.2929212, 55.6540814],
              [37.290921, 55.655349],
              [37.2885859, 55.6548888],
              [37.2900957, 55.651944],
              [37.2902143, 55.6484944],
              [37.2753863, 55.6496037],
              [37.2753777, 55.6501223],
              [37.2714137, 55.650525],
              [37.2714907, 55.6515065],
              [37.2661825, 55.6503723],
              [37.2656877, 55.6494889],
              [37.2621013, 55.6500668],
              [37.2573516, 55.6492982],
              [37.2488942, 55.6456366],
              [37.2408203, 55.6437305],
              [37.241555, 55.6432245],
              [37.2406147, 55.6418635],
              [37.2388452, 55.6420895],
              [37.2351353, 55.6387035],
              [37.2359693, 55.6377932],
              [37.2350901, 55.6373606],
              [37.2363575, 55.6359836],
              [37.2393897, 55.6353258],
              [37.2408375, 55.6338384],
              [37.2438889, 55.6335642],
              [37.2401098, 55.6325269],
              [37.2350611, 55.6289021],
              [37.2376231, 55.6274725],
              [37.2357827, 55.6248652],
              [37.2320197, 55.6254034],
              [37.2256346, 55.6232302],
              [37.2293493, 55.6213634],
              [37.2290128, 55.6202011],
              [37.2273077, 55.6196406],
              [37.2247907, 55.6215142],
              [37.2221999, 55.6204884],
              [37.2177146, 55.6224326],
              [37.2166718, 55.6219493],
              [37.2145561, 55.6227591],
              [37.2112733, 55.6201053],
              [37.2068403, 55.622902],
              [37.1886489, 55.6201733],
              [37.1854743, 55.6187847],
              [37.1867703, 55.6127264],
              [37.1822467, 55.6128981],
              [37.1814276, 55.6109121],
              [37.1773901, 55.6072624],
              [37.1720429, 55.6052282],
              [37.1638954, 55.6055263],
              [37.1601568, 55.6042443],
              [37.1517971, 55.6042234],
              [37.147166, 55.6057528],
              [37.1461173, 55.6093796],
              [37.145171, 55.6091424],
              [37.1457541, 55.6082916],
              [37.1424864, 55.6091606],
              [37.1326594, 55.6055784],
              [37.1340274, 55.6040467],
              [37.1331439, 55.6033598],
              [37.1347813, 55.6013166],
              [37.132427, 55.5991855],
              [37.1239601, 55.5989605],
              [37.1186071, 55.6017141],
              [37.1177472, 55.6044504],
              [37.1164617, 55.6056356],
              [37.1022096, 55.6024867],
              [37.0957269, 55.6001139],
              [37.0991405, 55.5961291],
              [37.091995, 55.5961835],
              [37.0948648, 55.5925064],
              [37.0872002, 55.5904847],
              [37.0964945, 55.5774029],
              [37.1146925, 55.5655511],
              [37.1254702, 55.5499634],
              [37.1151768, 55.5474463],
              [37.1135595, 55.538946],
              [37.1225083, 55.5383655],
              [37.122165, 55.5351445],
              [37.119922, 55.5314093],
              [37.1159062, 55.5299985],
              [37.1174219, 55.5279294],
              [37.1169508, 55.5268847],
              [37.1188548, 55.523517],
              [37.1199489, 55.5191305],
              [37.1173937, 55.5188677],
              [37.1175802, 55.5176335],
              [37.1185107, 55.5176212],
              [37.1186307, 55.5131369],
              [37.1363952, 55.5130264],
              [37.1360858, 55.5157095],
              [37.1384665, 55.5148805],
              [37.1361965, 55.5000219],
              [37.125581, 55.4972324],
              [37.1239598, 55.4961362],
              [37.1265898, 55.4952001],
              [37.1238807, 55.4927453],
              [37.1250587, 55.492263],
              [37.1241813, 55.4915532],
              [37.1286974, 55.4885441],
              [37.1268983, 55.4874488],
              [37.1356016, 55.482645],
              [37.1382807, 55.4826559],
              [37.1360554, 55.4820958],
              [37.1391906, 55.4733418],
              [37.1126288, 55.469838],
              [37.1126712, 55.4689037],
              [37.0933611, 55.4704043],
              [37.0922795, 55.4649172],
              [37.1500939, 55.4389602],
              [37.1488482, 55.4381762],
              [37.1413975, 55.4426533],
              [37.1358267, 55.4406366],
              [37.1371055, 55.4396022],
              [37.1357377, 55.4381618],
              [37.1339945, 55.443159],
              [37.1305574, 55.4415681],
              [37.1244078, 55.4419544],
              [37.118207, 55.4398839],
              [37.1195159, 55.439197],
              [37.1170058, 55.4380571],
              [37.1113948, 55.4397999],
              [37.1084991, 55.4395122],
              [37.1125655, 55.4412924],
              [37.1079402, 55.4450667],
              [37.1131066, 55.4482097],
              [37.1127784, 55.4492266],
              [37.0998116, 55.4457102],
              [37.100764, 55.4451234],
              [37.0970779, 55.4426935],
              [37.0960453, 55.4432768],
              [37.0892834, 55.4412316],
              [37.0872679, 55.4462724],
              [37.0825219, 55.4454923],
              [37.0806183, 55.4466848],
              [37.0814225, 55.4482436],
              [37.0786002, 55.4500415],
              [37.0805144, 55.4507438],
              [37.0803245, 55.4526986],
              [37.0767899, 55.4535678],
              [37.0586117, 55.4546905],
              [37.0606131, 55.4626603],
              [37.0368186, 55.464061],
              [37.0355766, 55.4584408],
              [37.0321283, 55.4559566],
              [37.0200709, 55.4567858],
              [37.0192337, 55.4451288],
              [37.0063088, 55.4461697],
              [37.0046416, 55.4471541],
              [37.0034712, 55.4495971],
              [37.0055731, 55.4505198],
              [37.002084, 55.4525958],
              [36.999775, 55.452502],
              [36.9963253, 55.4564468],
              [36.9933152, 55.4566522],
              [36.9940174, 55.4583184],
              [36.9895955, 55.459224],
              [36.9892874, 55.4568512],
              [36.9840096, 55.4577873],
              [36.9829592, 55.454873],
              [36.9734462, 55.4554605],
              [36.9777907, 55.4937419],
              [36.9350578, 55.4961553],
              [36.9380657, 55.4990019],
              [36.9369095, 55.4994809],
              [36.9352278, 55.505233],
              [36.9379678, 55.5070078],
              [36.9371283, 55.5082756],
              [36.9377862, 55.5094618],
              [36.9360189, 55.5090215],
              [36.9419815, 55.5153293],
              [36.9399755, 55.5165588],
              [36.9335939, 55.5159321],
              [36.9356096, 55.5150132],
              [36.9197539, 55.5154461],
              [36.9194745, 55.5058449],
              [36.8445171, 55.5070693],
              [36.8278753, 55.507513],
              [36.8279763, 55.5084235],
              [36.8162398, 55.5083513],
              [36.8152077, 55.4659722],
              [36.8045117, 55.465508],
              [36.8031012, 55.4408329]
            ]
          ],
          [
            [
              [36.8880788, 55.7344361],
              [36.8895754, 55.7330266],
              [36.8960645, 55.7332726],
              [36.9093029, 55.7320917],
              [36.9141952, 55.7328392],
              [36.9177549, 55.7320781],
              [36.9189142, 55.7310489],
              [36.9193905, 55.7312466],
              [36.9177111, 55.7334413],
              [36.9208708, 55.732897],
              [36.9237123, 55.7368148],
              [36.9107236, 55.7362346],
              [36.9102614, 55.7365133],
              [36.9101237, 55.736857],
              [36.9104673, 55.7385651],
              [36.9067721, 55.7386015],
              [36.9047674, 55.7413271],
              [36.9080318, 55.7412453],
              [36.9105616, 55.7385928],
              [36.9101958, 55.7368593],
              [36.9107647, 55.7362825],
              [36.9240219, 55.7368892],
              [36.9340787, 55.7435035],
              [36.937655, 55.7539187],
              [36.9436315, 55.7546611],
              [36.94566, 55.7512278],
              [36.948236, 55.7517362],
              [36.9484381, 55.7500398],
              [36.944602, 55.7482261],
              [36.9458608, 55.747483],
              [36.9448014, 55.7469737],
              [36.9453832, 55.7455499],
              [36.9426226, 55.7420828],
              [36.941123, 55.7423217],
              [36.9408813, 55.7390788],
              [36.9360069, 55.7395585],
              [36.9352279, 55.7371427],
              [36.9460306, 55.7367582],
              [36.9468661, 55.7358523],
              [36.9476722, 55.7317613],
              [36.9619978, 55.7327527],
              [36.9638787, 55.7350955],
              [36.9638402, 55.7361599],
              [36.9763911, 55.7384217],
              [36.9743208, 55.7411057],
              [36.9775837, 55.7421556],
              [36.9813821, 55.7386657],
              [36.9900524, 55.739648],
              [36.9905671, 55.7399161],
              [36.9891432, 55.7414516],
              [36.9901775, 55.7418442],
              [36.9940932, 55.7405823],
              [36.9925202, 55.7398484],
              [36.9839527, 55.7385296],
              [36.9895569, 55.734738],
              [36.9908798, 55.7346242],
              [36.9953439, 55.73834],
              [37.0025452, 55.7398403],
              [37.0056864, 55.7396562],
              [37.0031706, 55.7351713],
              [37.0023432, 55.7351307],
              [36.9993559, 55.7383563],
              [36.9965947, 55.7366338],
              [36.9942712, 55.7365282],
              [36.9954305, 55.7359188],
              [36.9908558, 55.7334623],
              [36.9935544, 55.7315609],
              [36.9856481, 55.7273289],
              [36.9806645, 55.7321126],
              [36.9797216, 55.7347561],
              [36.9738432, 55.7362565],
              [36.9652517, 55.7354494],
              [36.9632698, 55.7337161],
              [36.9620864, 55.7299294],
              [36.9633949, 55.7295068],
              [36.9625675, 55.7277732],
              [36.9679937, 55.7278057],
              [36.9773645, 55.7241973],
              [36.977403, 55.7235146],
              [36.9912379, 55.7189466],
              [36.9967025, 55.7192609],
              [36.9989827, 55.7210491],
              [36.9998871, 55.7229565],
              [37.0060733, 55.7253243],
              [37.0070581, 55.7232026],
              [37.0093235, 55.7229842],
              [37.0083235, 55.7198193],
              [37.01214, 55.7204247],
              [37.0127999, 55.7185663],
              [37.0116706, 55.7158647],
              [37.0173715, 55.7156616],
              [37.0148396, 55.7107633],
              [37.0197019, 55.7107038],
              [37.0242523, 55.7095857],
              [37.0207248, 55.7084159],
              [37.0206459, 55.7069193],
              [37.0152353, 55.7066014],
              [37.0094324, 55.7074907],
              [37.0110855, 55.7104036],
              [37.0130244, 55.7103538],
              [37.0132216, 55.7121589],
              [37.0110243, 55.7152286],
              [37.0078132, 55.7147496],
              [37.0066907, 55.7158303],
              [37.005058, 55.715447],
              [37.0033505, 55.713803],
              [36.9989761, 55.713186],
              [37.000017, 55.711561],
              [37.0020783, 55.7119366],
              [37.0013258, 55.7111267],
              [37.0033641, 55.7107485],
              [37.0019422, 55.7095834],
              [37.0020443, 55.7080848],
              [37.0002415, 55.7078854],
              [36.9975067, 55.711059],
              [36.997908, 55.712477],
              [36.9920438, 55.7120899],
              [37.0001598, 55.707391],
              [37.0029219, 55.7070039],
              [37.0023572, 55.7062488],
              [37.0041736, 55.7054131],
              [37.0172354, 55.7053671],
              [37.0174123, 55.7065554],
              [37.0201063, 55.7067931],
              [37.0344352, 55.7066217],
              [37.0337804, 55.7071993],
              [37.0352703, 55.7075022],
              [37.0291475, 55.7118178],
              [37.0275626, 55.7104911],
              [37.026716, 55.7108271],
              [37.0266438, 55.7095588],
              [37.0246619, 55.7097268],
              [37.0275145, 55.7123285],
              [37.0338403, 55.7139869],
              [37.035394, 55.7110656],
              [37.0379436, 55.7091739],
              [37.0545397, 55.7097566],
              [37.0583929, 55.712052],
              [37.0601391, 55.7188833],
              [37.0616544, 55.7203735],
              [37.0679025, 55.7228781],
              [37.0788462, 55.7154165],
              [37.0963994, 55.7155826],
              [37.0964024, 55.7162999],
              [37.1041179, 55.7163682],
              [37.1076668, 55.7156382],
              [37.1130095, 55.7161027],
              [37.1120866, 55.7170626],
              [37.1167376, 55.7199401],
              [37.1230623, 55.7212047],
              [37.1192901, 55.7238615],
              [37.1277753, 55.7280823],
              [37.121588, 55.7338884],
              [37.1220161, 55.7348608],
              [37.1169218, 55.736586],
              [37.1164023, 55.7375041],
              [37.1116255, 55.7380078],
              [37.1120681, 55.738999],
              [37.1073875, 55.7415743],
              [37.0969672, 55.7437903],
              [37.0924909, 55.7436487],
              [37.0897839, 55.7413193],
              [37.0858717, 55.741638],
              [37.081503, 55.7361524],
              [37.0794847, 55.7354089],
              [37.082354, 55.7325818],
              [37.0913412, 55.7302886],
              [37.0943494, 55.7287203],
              [37.0958803, 55.7306109],
              [37.096697, 55.7306011],
              [37.0962655, 55.73171],
              [37.1051824, 55.7326387],
              [37.1028701, 55.7342177],
              [37.1050672, 55.7339193],
              [37.1076652, 55.7347674],
              [37.1110085, 55.7322845],
              [37.1158835, 55.7361734],
              [37.1194743, 55.734789],
              [37.1206477, 55.7327893],
              [37.1203158, 55.7317722],
              [37.1125706, 55.7271232],
              [37.1017724, 55.7256202],
              [37.0969849, 55.7261353],
              [37.0950375, 55.7282274],
              [37.0884741, 55.72737],
              [37.0809928, 55.7280767],
              [37.0737775, 55.7301381],
              [37.070237, 55.7290194],
              [37.0691643, 55.7234714],
              [37.0682754, 55.7231292],
              [37.0653773, 55.7223701],
              [37.0645853, 55.7231905],
              [37.0548139, 55.7236971],
              [37.0520351, 55.7223199],
              [37.048983, 55.7219833],
              [37.0488262, 55.7213876],
              [37.0542571, 55.720357],
              [37.0525396, 55.7183531],
              [37.0409758, 55.7192852],
              [37.04219, 55.7194428],
              [37.0426585, 55.7210281],
              [37.0447642, 55.7208031],
              [37.0473855, 55.7218452],
              [37.0477575, 55.723524],
              [37.0467747, 55.7268231],
              [37.038907, 55.7316322],
              [37.0297623, 55.7322119],
              [37.0272512, 55.7335201],
              [37.0240186, 55.7322579],
              [37.0233049, 55.7331091],
              [37.0248364, 55.7337855],
              [37.0291177, 55.7339643],
              [37.0219665, 55.7349139],
              [37.0242715, 55.7408832],
              [37.0238426, 55.7429299],
              [37.0204704, 55.7454183],
              [37.0101808, 55.7463877],
              [37.0066403, 55.745394],
              [37.0016663, 55.7416437],
              [36.9992755, 55.7422746],
              [36.999492, 55.7431492],
              [37.0001077, 55.7429705],
              [36.9993958, 55.7436096],
              [37.0006561, 55.7436745],
              [37.0015124, 55.7453994],
              [37.0081556, 55.7477279],
              [37.0060342, 55.749596],
              [37.0045814, 55.7485672],
              [36.9959948, 55.7473461],
              [36.9926082, 55.7491656],
              [36.9915739, 55.7488271],
              [36.9926467, 55.7490654],
              [36.9951626, 55.74769],
              [36.993349, 55.7469535],
              [36.9920502, 55.7447089],
              [36.9861771, 55.7445116],
              [36.9850081, 55.7454836],
              [36.9911174, 55.7484322],
              [36.9899966, 55.7493987],
              [36.9888469, 55.7486136],
              [36.9845415, 55.7502597],
              [36.9873075, 55.7517866],
              [36.9869564, 55.7546642],
              [36.9827135, 55.7576446],
              [36.9840749, 55.7581047],
              [36.9836419, 55.758684],
              [36.9787545, 55.7604866],
              [36.974935, 55.7572142],
              [36.9807915, 55.7559098],
              [36.9776597, 55.7515842],
              [36.9781789, 55.7511847],
              [36.9718338, 55.7521907],
              [36.9720134, 55.7539217],
              [36.9703896, 55.7495426],
              [36.9681319, 55.7495498],
              [36.9669592, 55.7474575],
              [36.9644145, 55.7476768],
              [36.9590075, 55.7498752],
              [36.9606094, 55.7506549],
              [36.9581946, 55.7512045],
              [36.9563714, 55.7539658],
              [36.9576736, 55.7556788],
              [36.9571074, 55.7582455],
              [36.9593587, 55.755276],
              [36.9706585, 55.7557498],
              [36.9718082, 55.757945],
              [36.968056, 55.7600373],
              [36.9332186, 55.7544071],
              [36.9329204, 55.7526366],
              [36.9285044, 55.7511747],
              [36.9210193, 55.7465802],
              [36.9159827, 55.7466723],
              [36.9080791, 55.7487516],
              [36.9077905, 55.7473194],
              [36.9060491, 55.7469566],
              [36.9047551, 55.7453943],
              [36.8997474, 55.7453672],
              [36.8985833, 55.7418064],
              [36.8968708, 55.7421693],
              [36.8992183, 55.7410401],
              [36.9005548, 55.7351641],
              [36.8999302, 55.7351417],
              [36.8997282, 55.7337604],
              [36.8904871, 55.7336011],
              [36.8900381, 55.7343595],
              [36.8880788, 55.7344361]
            ]
          ],
          [
            [
              [36.9007522, 55.3148568],
              [36.903505, 55.3124931],
              [36.9076917, 55.3112522],
              [36.9110651, 55.3135704],
              [36.9120709, 55.3167452],
              [36.9176683, 55.3163625],
              [36.9228058, 55.3239412],
              [36.9224056, 55.3247544],
              [36.9137544, 55.3258954],
              [36.9158469, 55.3303256],
              [36.910332, 55.3313028],
              [36.9096726, 55.3297985],
              [36.9084432, 55.3298934],
              [36.9091167, 55.32684],
              [36.9101209, 55.3261704],
              [36.909091, 55.3199197],
              [36.9061728, 55.3167452],
              [36.9039411, 55.3172336],
              [36.9007522, 55.3148568]
            ]
          ],
          [
            [
              [37.1316021, 56.0164459],
              [37.1511709, 55.9995486],
              [37.1491992, 55.9983433],
              [37.1502483, 55.9975337],
              [37.1499296, 55.9965725],
              [37.1513682, 55.9962133],
              [37.152711, 55.994242],
              [37.1527443, 55.9930578],
              [37.150691, 55.9931332],
              [37.1488217, 55.9921204],
              [37.1495825, 55.9911696],
              [37.1440873, 55.9898821],
              [37.1487335, 55.9769919],
              [37.1487736, 55.9702666],
              [37.1463797, 55.9699697],
              [37.1455974, 55.9660427],
              [37.1483029, 55.9656039],
              [37.1466108, 55.9637194],
              [37.1492328, 55.9630419],
              [37.149624, 55.9622873],
              [37.1516231, 55.9617892],
              [37.1541848, 55.9624265],
              [37.1564966, 55.9619784],
              [37.1568535, 55.9625578],
              [37.159278, 55.9618903],
              [37.1594204, 55.962495],
              [37.1603316, 55.9614937],
              [37.1616778, 55.9614896],
              [37.1619132, 55.9600188],
              [37.1627574, 55.9601202],
              [37.1623721, 55.9595502],
              [37.1630573, 55.9590231],
              [37.1640404, 55.9594924],
              [37.1640371, 55.9589706],
              [37.1660268, 55.9590673],
              [37.1659944, 55.9585137],
              [37.1691449, 55.9588613],
              [37.1681062, 55.9594338],
              [37.168944, 55.9599154],
              [37.1686421, 55.9607015],
              [37.1714702, 55.9606801],
              [37.173791, 55.9593965],
              [37.1725598, 55.9579344],
              [37.1748638, 55.9574757],
              [37.1776085, 55.958712],
              [37.1825098, 55.9587334],
              [37.1844112, 55.9573578],
              [37.183335, 55.9556326],
              [37.1842377, 55.9550727],
              [37.1832169, 55.9542615],
              [37.1864035, 55.9530893],
              [37.1875313, 55.9554467],
              [37.1888245, 55.9561139],
              [37.1943295, 55.9550392],
              [37.1938648, 55.9545043],
              [37.1952343, 55.9537653],
              [37.1959052, 55.9547182],
              [37.202851, 55.9532172],
              [37.2029168, 55.9517714],
              [37.2015293, 55.949413],
              [37.2023482, 55.9485977],
              [37.2049645, 55.9482027],
              [37.2081036, 55.9491606],
              [37.2084426, 55.9484076],
              [37.2111045, 55.9480719],
              [37.21199, 55.9487964],
              [37.2135367, 55.9482854],
              [37.2144807, 55.9488032],
              [37.2174548, 55.9480078],
              [37.2199076, 55.9502304],
              [37.2184454, 55.9514662],
              [37.2207934, 55.9540293],
              [37.2185558, 55.9552062],
              [37.2193881, 55.9571182],
              [37.2172453, 55.9579073],
              [37.2153356, 55.9563228],
              [37.2138271, 55.9566009],
              [37.212592, 55.9558441],
              [37.2101783, 55.9573718],
              [37.2093294, 55.960172],
              [37.2068763, 55.9614407],
              [37.2056397, 55.9631208],
              [37.20928, 55.9644195],
              [37.2115659, 55.9671511],
              [37.2076749, 55.9687217],
              [37.2085291, 55.9700967],
              [37.2124004, 55.9692435],
              [37.2131413, 55.9701733],
              [37.2113032, 55.9704557],
              [37.2128397, 55.9765963],
              [37.2170014, 55.9759938],
              [37.2187735, 55.9772412],
              [37.2170506, 55.9776682],
              [37.2174582, 55.9783647],
              [37.2205147, 55.9813061],
              [37.2237723, 55.9817038],
              [37.2258554, 55.9800801],
              [37.2301717, 55.9802425],
              [37.2306533, 55.9789095],
              [37.233266, 55.9784951],
              [37.2358184, 55.9797992],
              [37.2383718, 55.9787869],
              [37.2419261, 55.979338],
              [37.2440778, 55.977189],
              [37.2436962, 55.9766983],
              [37.2464974, 55.9757394],
              [37.25327, 55.9704143],
              [37.2524878, 55.9678978],
              [37.2600364, 55.9679085],
              [37.2622617, 55.9668768],
              [37.268302, 55.9678365],
              [37.2612918, 55.9680732],
              [37.2614608, 55.971425],
              [37.263798, 55.9727113],
              [37.266438, 55.9794662],
              [37.2654083, 55.9796474],
              [37.2661626, 55.9811435],
              [37.2677431, 55.9819338],
              [37.2651738, 55.9830376],
              [37.2655035, 55.9844898],
              [37.2644583, 55.9871372],
              [37.2630137, 55.9885412],
              [37.2555496, 55.9872614],
              [37.2537923, 55.9882694],
              [37.2573079, 55.9900582],
              [37.2605357, 55.9931529],
              [37.2484437, 55.9978412],
              [37.2463117, 56.0008098],
              [37.2443672, 56.0010943],
              [37.2423008, 56.0002817],
              [37.2106648, 56.0124305],
              [37.2113025, 56.0129758],
              [37.2073752, 56.0171497],
              [37.2032502, 56.0154857],
              [37.1889779, 56.0212238],
              [37.1869984, 56.0199938],
              [37.1845117, 56.0200182],
              [37.1852849, 56.0189154],
              [37.1776116, 56.0151322],
              [37.1677442, 56.0138908],
              [37.1646153, 56.0142329],
              [37.1617302, 56.0132212],
              [37.1588626, 56.0137002],
              [37.1599626, 56.0144412],
              [37.1591858, 56.0153355],
              [37.1597544, 56.0163625],
              [37.158256, 56.0179977],
              [37.1505203, 56.0164989],
              [37.1500948, 56.0172227],
              [37.1452354, 56.0180924],
              [37.1387536, 56.0183722],
              [37.138927, 56.017892],
              [37.1360907, 56.0191079],
              [37.1316021, 56.0164459]
            ]
          ],
          [
            [
              [37.290502, 55.8019897],
              [37.2932645, 55.7980647],
              [37.2931684, 55.7963971],
              [37.3023539, 55.7986335],
              [37.3035641, 55.8035588],
              [37.290502, 55.8019897]
            ]
          ],
          [
            [
              [37.3079191, 55.7972282],
              [37.3091117, 55.7971259],
              [37.3093392, 55.7959742],
              [37.3118836, 55.7968584],
              [37.3126617, 55.7956909],
              [37.315274, 55.7968902],
              [37.3152007, 55.796163],
              [37.3167382, 55.7957912],
              [37.3209466, 55.7978523],
              [37.3240838, 55.7971166],
              [37.3249703, 55.7966009],
              [37.3231509, 55.7970297],
              [37.3143887, 55.7936861],
              [37.3164453, 55.7927791],
              [37.3100592, 55.7920866],
              [37.3128219, 55.7908116],
              [37.315399, 55.7884035],
              [37.3128801, 55.7877903],
              [37.310606, 55.7844642],
              [37.3115518, 55.7841496],
              [37.3118433, 55.7801654],
              [37.3131458, 55.7797513],
              [37.3128271, 55.7863845],
              [37.3283121, 55.781108],
              [37.3270408, 55.7795343],
              [37.3243366, 55.7786025],
              [37.3229729, 55.7767335],
              [37.3153018, 55.7746034],
              [37.3108516, 55.7754361],
              [37.3098117, 55.7719721],
              [37.3084937, 55.7705913],
              [37.3127565, 55.769081],
              [37.3189369, 55.7695065],
              [37.3207023, 55.7668207],
              [37.3322475, 55.767984],
              [37.3323016, 55.7719341],
              [37.3382839, 55.7712914],
              [37.3403335, 55.7704036],
              [37.3383438, 55.7692766],
              [37.3398609, 55.7690197],
              [37.3444969, 55.7685981],
              [37.3445145, 55.7697565],
              [37.3470671, 55.7695512],
              [37.3524395, 55.7737624],
              [37.3522319, 55.7780272],
              [37.3605084, 55.7830987],
              [37.3594889, 55.7839671],
              [37.3705101, 55.7880302],
              [37.3680103, 55.7899212],
              [37.3578174, 55.7925683],
              [37.3486793, 55.7964211],
              [37.352094, 55.797147],
              [37.3538935, 55.798865],
              [37.3594884, 55.8012546],
              [37.3582512, 55.8033426],
              [37.3494535, 55.8064784],
              [37.3427758, 55.8051114],
              [37.3361042, 55.8020658],
              [37.334486, 55.7996108],
              [37.32179, 55.8007522],
              [37.3147699, 55.7992573],
              [37.3143061, 55.7981332],
              [37.3079191, 55.7972282]
            ]
          ],
          [
            [
              [37.7900343, 56.0029214],
              [37.7921011, 56.0024925],
              [37.7940939, 56.0031557],
              [37.7928913, 56.0038815],
              [37.7900343, 56.0029214]
            ]
          ],
          [
            [
              [37.7912235, 56.0072852],
              [37.7931498, 56.0055432],
              [37.7968376, 56.0047609],
              [37.7994322, 56.0061526],
              [37.7981439, 56.0074434],
              [37.799, 56.0076888],
              [37.7979856, 56.0087675],
              [37.7989795, 56.0092752],
              [37.7985143, 56.0097028],
              [37.7948968, 56.0093202],
              [37.7953186, 56.0090242],
              [37.7912235, 56.0072852]
            ]
          ],
          [
            [
              [37.8453271, 55.8135622],
              [37.849809, 55.8104662],
              [37.8488715, 55.8094232],
              [37.8502374, 55.808557],
              [37.8521852, 55.8089604],
              [37.8563695, 55.8060414],
              [37.8606871, 55.8075406],
              [37.8600338, 55.8084267],
              [37.8616973, 55.8086902],
              [37.8657431, 55.804208],
              [37.8665868, 55.8042107],
              [37.8711986, 55.8063292],
              [37.8700807, 55.8077607],
              [37.8735825, 55.8086963],
              [37.8741278, 55.8106937],
              [37.8781481, 55.8114292],
              [37.8798248, 55.8142046],
              [37.8830652, 55.8162984],
              [37.8868742, 55.8165315],
              [37.8892963, 55.8151759],
              [37.894541, 55.8139399],
              [37.898549, 55.8143866],
              [37.8993112, 55.8162911],
              [37.8978239, 55.817922],
              [37.8890935, 55.8194231],
              [37.887908, 55.8207903],
              [37.8805382, 55.8195135],
              [37.8783391, 55.8206528],
              [37.8737977, 55.8200036],
              [37.8722162, 55.8225388],
              [37.8600116, 55.819398],
              [37.8591727, 55.8199786],
              [37.8576463, 55.8195971],
              [37.8581098, 55.8187889],
              [37.8573206, 55.8179111],
              [37.8453271, 55.8135622]
            ]
          ],
          [
            [
              [37.8684899, 55.8239272],
              [37.8689418, 55.8228697],
              [37.8760016, 55.8249027],
              [37.8735166, 55.8252341],
              [37.8684899, 55.8239272]
            ]
          ]
        ]
      }
    }
  ]
}
