{
  "type": "FeatureCollection",
  "licence": "Data © OpenStreetMap contributors, ODbL 1.0. http://osm.org/copyright",
  "features": [
    {
      "type": "Feature",
      "properties": {
        "name": "Коридор Олонец — Ильинский, буфер 10 км",
        "bufferMeters": 10000,
        "anchors": [
          {
            "name": "Ильинский",
            "osmType": "relation",
            "osmId": 6360163,
            "lat": 61.015217,
            "lon": 32.660835
          },
          {
            "name": "Олонец",
            "osmType": "relation",
            "osmId": 14089320,
            "lat": 60.979276,
            "lon": 32.9749376
          }
        ]
      },
      "geometry": {
        "type": "Polygon",
        "coordinates": [
          [
            [32.47555953036507, 61.015217],
            [32.476451682392295, 61.00635260689406],
            [32.47911954656226, 60.99757358273951],
            [32.483537429884606, 60.98896447433805],
            [32.48966278572787, 60.9806081921098],
            [32.49743662356683, 60.97258521162063],
            [32.50678407709347, 60.96497279855847],
            [32.51761512522051, 60.95784426462246],
            [32.52982545903362, 60.95126826149126],
            [32.543297486343334, 60.94530811966984],
            [32.55790146416211, 60.94002123858208],
            [32.573496748200185, 60.935458533782956],
            [32.58993314734705, 60.93166394661392],
            [32.607052370093854, 60.92867402102373],
            [32.62468954896723, 60.92651755163029],
            [32.93879214896723, 60.89057655163029],
            [32.956777428293165, 60.8892743064127],
            [32.9749376, 60.88883882670429],
            [32.99309777170683, 60.8892743064127],
            [33.01108305103276, 60.89057655163029],
            [33.02872022990614, 60.89273302102373],
            [33.04583945265295, 60.895722946613915],
            [33.06227585179981, 60.899517533782955],
            [33.07787113583789, 60.904080238582075],
            [33.09247511365666, 60.90936711966984],
            [33.10594714096638, 60.91532726149126],
            [33.11815747477949, 60.92190326462246],
            [33.128988522906525, 60.92903179855847],
            [33.13833597643317, 60.93664421162063],
            [33.14610981427212, 60.9446671921098],
            [33.15223517011539, 60.953023474338046],
            [33.156653053437736, 60.96163258273951],
            [33.1593209176077, 60.97041160689406],
            [33.16021306963493, 60.979276],
            [33.1593209176077, 60.98814039310594],
            [33.156653053437736, 60.996919417260486],
            [33.15223517011539, 61.00552852566195],
            [33.14610981427212, 61.0138848078902],
            [33.13833597643317, 61.021907788379366],
            [33.128988522906525, 61.02952020144153],
            [33.11815747477949, 61.03664873537754],
            [33.10594714096638, 61.04322473850874],
            [33.09247511365666, 61.04918488033016],
            [33.07787113583789, 61.05447176141792],
            [33.06227585179981, 61.05903446621704],
            [33.04583945265295, 61.06282905338608],
            [33.02872022990614, 61.06581897897627],
            [33.01108305103276, 61.06797544836971],
            [32.696980451032765, 61.10391644836971],
            [32.67899517170683, 61.1052186935873],
            [32.660835, 61.10565417329571],
            [32.64267482829317, 61.1052186935873],
            [32.62468954896723, 61.10391644836971],
            [32.607052370093854, 61.10175997897627],
            [32.58993314734705, 61.09877005338608],
            [32.573496748200185, 61.09497546621704],
            [32.55790146416211, 61.09041276141792],
            [32.543297486343334, 61.08512588033016],
            [32.52982545903362, 61.07916573850874],
            [32.51761512522051, 61.07258973537754],
            [32.50678407709347, 61.06546120144153],
            [32.49743662356683, 61.05784878837937],
            [32.48966278572787, 61.0498258078902],
            [32.483537429884606, 61.04146952566195],
            [32.47911954656226, 61.03286041726049],
            [32.476451682392295, 61.02408139310594],
            [32.47555953036507, 61.015217]
          ]
        ]
      }
    }
  ]
}
